      2.10          N: GNSS NAV DATA                        RINEX VERSION / TYPE
fic2rin                                 06/23/2022 00:17:31 PGM / RUN BY / DATE
                                                            END OF HEADER
8  22  6 22  1 59 44.0 -.731330364943D-04 -.159161572810D-11  .000000000000D+00
     .470000000000D+02 -.198437500000D+02  .441196949052D-08  .242188638328D+01
    -.108592212200D-05  .744389335159D-02  .642240047455D-05  .515377854156D+04
     .266384000000D+06 -.115483999252D-06  .103583985509D+01  .596046447754D-07
     .963197712822D+00  .257812500000D+03  .173232124613D+00 -.810998067039D-08
    -.268939773850D-09  .100000000000D+01  .221500000000D+04  .000000000000D+00
     .240000000000D+01  .000000000000D+00  .512227416039D-08  .470000000000D+02
     .259200000000D+06  .400000000000D+01
20 22  6 22  1 59 44.0  .509435310960D-03 -.318323145621D-11  .000000000000D+00
     .600000000000D+01  .584375000000D+01  .515557189312D-08  .133401487112D+01
     .819563865662D-07  .476138619706D-02  .632368028164D-05  .515359908295D+04
     .266384000000D+06  .111758708954D-07  .299414019572D+01  .260770320892D-07
     .943861364894D+00  .249468750000D+03 -.311900409102D+01 -.844249452093D-08
     .339299847486D-09  .100000000000D+01  .221500000000D+04  .000000000000D+00
     .240000000000D+01  .000000000000D+00 -.838190317154D-08  .600000000000D+01
     .259200000000D+06  .400000000000D+01
17 22  6 22  1 59 44.0  .627934932709D-03  .466116034659D-11  .000000000000D+00
     .700000000000D+01 -.323750000000D+02  .389087635633D-08  .246336691778D+01
    -.159442424774D-05  .135275807697D-01  .680051743984D-05  .515357025337D+04
     .266384000000D+06  .180676579475D-06  .111968065282D+01  .204890966415D-07
     .978419799683D+00  .253531250000D+03 -.149077537495D+01 -.768174854709D-08
    -.298583865788D-09  .100000000000D+01  .221500000000D+04  .000000000000D+00
     .240000000000D+01  .000000000000D+00 -.111758708954D-07  .700000000000D+01
     .259200000000D+06  .400000000000D+01
2  22  6 22  2  0  0.0 -.652433373034D-03  .454747350886D-12  .000000000000D+00
     .500000000000D+02 -.197812500000D+02  .427339228966D-08  .422473449601D+00
    -.114552676678D-05  .203955436591D-01  .944733619690D-05  .515368954468D+04
     .266400000000D+06 -.210478901863D-06  .202701219255D+01 -.184401869774D-06
     .965966871918D+00  .200687500000D+03 -.141212801102D+01 -.836999150089D-08
     .121433629627D-09  .100000000000D+01  .221500000000D+04  .000000000000D+00
     .240000000000D+01  .000000000000D+00 -.176951289177D-07  .500000000000D+02
     .259200000000D+06  .400000000000D+01
1  22  6 22  2  0  0.0  .336406286806D-03 -.773070496507D-11  .000000000000D+00
     .680000000000D+02  .268750000000D+01  .376587114936D-08  .257161131908D+00
     .651925802231D-07  .120156694902D-01  .937841832638D-05  .515366540337D+04
     .266400000000D+06 -.119209289551D-06  .211894279267D+01  .223517417908D-06
     .987915366869D+00  .217562500000D+03  .923398227723D+00 -.787425656582D-08
     .200722646618D-09  .100000000000D+01  .221500000000D+04  .000000000000D+00
     .240000000000D+01  .000000000000D+00  .512227416039D-08  .680000000000D+02
     .259200000000D+06  .400000000000D+01
5  22  6 22  2  0  0.0 -.863969326019D-04 -.136424205266D-11  .000000000000D+00
     .260000000000D+02 -.168750000000D+01  .477662753714D-08  .289319696108D+01
    -.199303030968D-06  .605778826866D-02  .634416937828D-05  .515374072075D+04
     .266400000000D+06 -.186264514923D-07  .311044538681D+01 -.124797224998D-06
     .961540687458D+00  .260187500000D+03  .104386668179D+01 -.811712382507D-08
     .352871841386D-09  .100000000000D+01  .221500000000D+04  .000000000000D+00
     .240000000000D+01  .000000000000D+00 -.111758708954D-07  .260000000000D+02
     .259200000000D+06  .400000000000D+01
3  22  6 22  2  0  0.0 -.285871326923D-03 -.113686837722D-10  .000000000000D+00
     .610000000000D+02 -.603125000000D+01  .457661920599D-08 -.846487015468D+00
    -.931322574615D-07  .430053879973D-02  .584125518799D-05  .515359981155D+04
     .266400000000D+06  .763684511185D-07 -.313067242802D+01  .521540641785D-07
     .974526172995D+00  .277562500000D+03  .980207495817D+00 -.814033907780D-08
     .339299847486D-09  .100000000000D+01  .221500000000D+04  .000000000000D+00
     .485000000000D+01  .000000000000D+00  .186264514923D-08  .610000000000D+02
     .259200000000D+06  .400000000000D+01
7  22  6 22  2  0  0.0  .321361701936D-03 -.682121026330D-12  .000000000000D+00
     .340000000000D+02  .406250000000D+02  .483198698594D-08 -.397023571408D+00
     .208057463169D-05  .162614003057D-01  .101141631603D-04  .515366005707D+04
     .266400000000D+06 -.335276126862D-07 -.103142098230D+01  .217929482460D-06
     .950514695838D+00  .178500000000D+03 -.225880681651D+01 -.841535053313D-08
    -.113576159474D-09  .100000000000D+01  .221500000000D+04  .000000000000D+00
     .240000000000D+01  .000000000000D+00 -.111758708954D-07  .340000000000D+02
     .259200000000D+06  .400000000000D+01
6  22  6 22  2  0  0.0  .353500712663D-03  .156887836056D-10  .000000000000D+00
     .280000000000D+02 -.475000000000D+01  .370658296549D-08  .484005697511D+00
    -.124797224998D-06  .247642479371D-02  .952184200287D-05  .515374997330D+04
     .266400000000D+06 -.186264514923D-08  .211066268950D+01 -.372529029846D-07
     .987243082866D+00  .204500000000D+03 -.853571238691D+00 -.777818113532D-08
     .271797035723D-09  .100000000000D+01  .221500000000D+04  .000000000000D+00
     .240000000000D+01  .000000000000D+00  .372529029846D-08  .280000000000D+02
     .259200000000D+06  .400000000000D+01
4  22  6 22  2  0  0.0 -.154457055032D-03  .420641299570D-11  .000000000000D+00
     .590000000000D+02 -.444375000000D+02  .485163066132D-08  .204186965294D+01
    -.223517417908D-05  .186457205564D-02  .805594027042D-05  .515360036469D+04
     .266400000000D+06 -.242143869400D-07 -.204948221780D+01  .147148966789D-06
     .961218860109D+00  .226093750000D+03 -.297523424853D+01 -.815962559544D-08
    -.167506977338D-09  .100000000000D+01  .221500000000D+04  .000000000000D+00
     .240000000000D+01  .000000000000D+00 -.465661287308D-08  .315000000000D+03
     .259200000000D+06  .400000000000D+01
10 22  6 22  2  0  0.0 -.464105512947D-03 -.144382283906D-10  .000000000000D+00
     .470000000000D+02 -.396875000000D+01  .442982737723D-08 -.175305565659D+01
    -.298023223877D-06  .765391485766D-02  .596977770329D-05  .515368168068D+04
     .266400000000D+06  .108033418655D-06 -.313341529994D+01  .745058059692D-08
     .974326293035D+00  .268062500000D+03 -.250005866310D+01 -.803176312660D-08
     .430017911972D-09  .100000000000D+01  .221500000000D+04  .000000000000D+00
     .240000000000D+01  .000000000000D+00  .232830643654D-08  .470000000000D+02
     .259200000000D+06  .400000000000D+01
9  22  6 22  2  0  0.0 -.326221808791D-03  .352429196937D-11  .000000000000D+00
     .390000000000D+02 -.518125000000D+02  .499663670140D-08  .301624262183D+01
    -.257790088654D-05  .212869071402D-02  .786222517490D-05  .515354419136D+04
     .266400000000D+06  .143423676491D-06 -.210347417631D+01  .763684511185D-07
     .954315689090D+00  .224125000000D+03  .187228749576D+01 -.825462955274D-08
    -.188579283656D-09  .100000000000D+01  .221500000000D+04  .000000000000D+00
     .240000000000D+01  .000000000000D+00  .139698386192D-08  .390000000000D+02
     .259200000000D+06  .400000000000D+01
32 22  6 22  2  0  0.0 -.157153233886D-03 -.943600753089D-11  .000000000000D+00
     .250000000000D+02 -.495625000000D+02  .480341436720D-08 -.312061457949D+01
    -.256486237049D-05  .602590467315D-02  .754557549953D-05  .515361246300D+04
     .266400000000D+06 -.409781932831D-07 -.209172136311D+01 -.178813934326D-06
     .958103766239D+00  .230687500000D+03 -.228105957648D+01 -.809033699501D-08
    -.209651589973D-09  .100000000000D+01  .221500000000D+04  .000000000000D+00
     .240000000000D+01  .000000000000D+00  .465661287308D-09  .250000000000D+02
     .259200000000D+06  .400000000000D+01
21 22  6 22  2  0  0.0  .161305069923D-03  .000000000000D+00  .000000000000D+00
     .230000000000D+02  .687500000000D+00  .423124767702D-08  .258164936554D+01
    -.540167093277D-07  .242423579330D-01  .873208045959D-05  .515374298286D+04
     .266400000000D+06  .298023223877D-06  .202458637155D+01  .234693288803D-06
     .960263343463D+00  .205593750000D+03 -.933990083773D+00 -.768317717803D-08
     .357157734196D-11  .100000000000D+01  .221500000000D+04  .000000000000D+00
     .240000000000D+01  .000000000000D+00 -.102445483208D-07  .230000000000D+02
     .259200000000D+06  .400000000000D+01
11 22  6 22  2  0  0.0 -.135935842991D-04  .216004991671D-11  .000000000000D+00
     .198000000000D+03 -.978125000000D+01  .423553356983D-08  .247208920988D+01
    -.575557351112D-06  .481234863400D-03  .911578536034D-05  .515359870338D+04
     .266400000000D+06  .372529029846D-08  .215976695094D+01  .242143869400D-07
     .963138248128D+00  .198437500000D+03  .281622779094D+01 -.800854787388D-08
     .283940398686D-09  .100000000000D+01  .221500000000D+04  .000000000000D+00
     .240000000000D+01  .000000000000D+00 -.838190317154D-08  .710000000000D+03
     .259200000000D+06  .400000000000D+01
29 22  6 22  2  0  0.0 -.526374671608D-03 -.363797880709D-11  .000000000000D+00
     .780000000000D+02 -.290000000000D+02  .396337937637D-08  .253847743880D+01
    -.142119824886D-05  .223271874711D-02  .628456473351D-05  .515368822670D+04
     .266400000000D+06 -.856816768646D-07  .113297863375D+01 -.391155481339D-07
     .980492268913D+00  .269968750000D+03  .231588551754D+01 -.786282751833D-08
    -.251081887140D-09  .100000000000D+01  .221500000000D+04  .000000000000D+00
     .340000000000D+01  .000000000000D+00 -.102445483208D-07  .780000000000D+02
     .259200000000D+06  .400000000000D+01
